NORAD_CAT_ID,OBJECT_NAME,OBJECT_TYPE,EPOCH,MEAN_MOTION,ECCENTRICITY,INCLINATION,RA_OF_ASC_NODE,ARG_OF_PERICENTER,MEAN_ANOMALY,BSTAR,MEAN_MOTION_DOT,MEAN_MOTION_DDOT,TLE_LINE0,TLE_LINE1,TLE_LINE2,SEMIMAJOR_AXIS,PERIOD,APOGEE,PERIGEE,DECAYED
54763.0,STARLINK-5191,PAYLOAD,2024-06-21 19:58:09,15.08839112,0.000126,53.2195,333.8561,81.5616,278.5519,4.3592e-05,4.06e-06,0.0,0 STARLINK-5191,1 54763U 22175F   24173.83205468  .00000406  00000-0  43592-4 0  9992,2 54763  53.2195 333.8561 0001260  81.5616 278.5519 15.08839112 85432,6917.883,95.438,540.62,538.876,0.0
54763.0,STARLINK-5191,PAYLOAD,2024-06-22 13:27:24,15.08837553,0.0001315,53.2194,330.5858,85.5059,274.6083,0.00011468,1.538e-05,0.0,0 STARLINK-5191,1 54763U 22175F   24174.56069462  .00001538  00000-0  11468-3 0  9998,2 54763  53.2194 330.5858 0001315  85.5059 274.6083 15.08837553 83382,6917.888,95.438,540.663,538.843,0.0
54763.0,STARLINK-5191,PAYLOAD,2024-06-22 16:38:09,15.08843355,0.0001135,53.2184,329.9903,99.8508,260.2613,8.7909e-05,1.112e-05,0.0,0 STARLINK-5191,1 54763U 22175F   24174.69317093  .00001112  00000-0  87909-4 0  9990,2 54763  53.2184 329.9903 0001135  99.8508 260.2613 15.08843355 85560,6917.87,95.437,540.52,538.95,0.0
54763.0,STARLINK-5191,PAYLOAD,2024-06-23 16:28:57,15.08840762,0.0001132,53.2181,325.5298,101.6812,258.4308,8.1975e-05,1.017e-05,0.0,0 STARLINK-5191,1 54763U 22175F   24175.68677190  .00001017  00000-0  81975-4 0  9998,2 54763  53.2181 325.5298 0001132 101.6812 258.4308 15.08840762 83559,6917.878,95.438,540.526,538.96,0.0
54763.0,STARLINK-5191,PAYLOAD,2024-06-24 14:44:20,15.0884435,0.0001137,53.218,321.3678,86.0074,274.1048,5.5949e-05,6.03e-06,0.0,0 STARLINK-5191,1 54763U 22175F   24176.61412995  .00000603  00000-0  55949-4 0  9994,2 54763  53.2180 321.3678 0001137  86.0074 274.1048 15.08844350 85853,6917.867,95.437,540.519,538.946,0.0
54763.0,STARLINK-5191,PAYLOAD,2024-06-24 16:19:43,15.08845568,0.0001152,53.2179,321.0702,88.2345,271.8779,6.3582e-05,7.24e-06,0.0,0 STARLINK-5191,1 54763U 22175F   24176.68036867  .00000724  00000-0  63582-4 0  9997,2 54763  53.2179 321.0702 0001152  88.2345 271.8779 15.08845568 85866,6917.863,95.437,540.525,538.931,0.0
54763.0,STARLINK-5191,PAYLOAD,2024-06-25 12:59:45,15.08838843,0.0001333,53.2187,317.2025,102.8563,257.2578,2.1557e-05,5.5e-07,0.0,0 STARLINK-5191,1 54763U 22175F   24177.54149318  .00000055  00000-0  21557-4 0  9992,2 54763  53.2187 317.2025 0001333 102.8563 257.2578 15.08838843 83834,6917.884,95.438,540.671,538.827,0.0
54763.0,STARLINK-5191,PAYLOAD,2024-06-25 14:35:08,15.08838033,0.0001344,53.2187,316.9049,108.8593,251.2545,1.4226e-05,-6.1e-07,0.0,0 STARLINK-5191,1 54763U 22175F   24177.60773347 -.00000061  00000-0  14226-4 0  9997,2 54763  53.2187 316.9049 0001344 108.8593 251.2545 15.08838033 86008,6917.886,95.438,540.681,538.822,0.0
54763.0,STARLINK-5191,PAYLOAD,2024-06-25 17:45:54,15.08837343,0.0001282,53.2187,316.3099,104.9918,255.1217,7.0554e-06,-1.76e-06,0.0,0 STARLINK-5191,1 54763U 22175F   24177.74021413 -.00000176  00000-0  70554-5 0  9996,2 54763  53.2187 316.3099 0001282 104.9918 255.1217 15.08837343 86020,6917.889,95.438,540.64,538.867,0.0
54763.0,STARLINK-5191,PAYLOAD,2024-06-27 12:41:19,15.08833374,0.0001067,53.2175,308.2836,79.4718,280.6395,3.2402e-05,2.28e-06,0.0,0 STARLINK-5191,1 54763U 22175F   24179.52870154  .00000228  00000-0  32402-4 0  9994,2 54763  53.2175 308.2836 0001067  79.4718 280.6395 15.08833374 84131,6917.901,95.438,540.504,539.028,0.0
54763.0,STARLINK-5191,PAYLOAD,2024-06-27 17:27:29,15.0883288,0.0001219,53.2183,307.3922,91.1549,268.9583,9.2816e-05,1.189e-05,0.0,0 STARLINK-5191,1 54763U 22175F   24179.72742013  .00001189  00000-0  92816-4 0  9990,2 54763  53.2183 307.3922 0001219  91.1549 268.9583 15.08832880 86320,6917.902,95.438,540.61,538.924,0.0
54763.0,STARLINK-5191,PAYLOAD,2024-06-28 01:24:24,15.08839352,0.000126,53.2185,305.9052,89.1818,270.9318,7.9973e-05,9.85e-06,0.0,0 STARLINK-5191,1 54763U 22175F   24180.05861719  .00000985  00000-0  79973-4 0  9995,2 54763  53.2185 305.9052 0001260  89.1818 270.9318 15.08839352 84218,6917.882,95.438,540.619,538.876,0.0
54763.0,STARLINK-5191,PAYLOAD,2024-06-28 12:32:06,15.08832241,0.0001266,53.2182,303.8231,87.7996,272.3141,8.2589e-05,1.027e-05,0.0,0 STARLINK-5191,1 54763U 22175F   24180.52230317  .00001027  00000-0  82589-4 0  9996,2 54763  53.2182 303.8231 0001266  87.7996 272.3141 15.08832241 84285,6917.904,95.438,540.645,538.893,0.0
54763.0,STARLINK-5191,PAYLOAD,2024-06-28 14:07:29,15.08836485,0.0001429,53.2175,303.5253,84.8002,275.3153,8.286e-05,1.031e-05,0.0,0 STARLINK-5191,1 54763U 22175F   24180.58854131  .00001031  00000-0  82860-4 0  9995,2 54763  53.2175 303.5253 0001429  84.8002 275.3153 15.08836485 86456,6917.891,95.438,540.745,538.768,0.0
54763.0,STARLINK-5191,PAYLOAD,2024-06-29 01:15:09,15.08864203,0.000112,53.2176,301.4435,61.2566,298.8539,0.00030078,4.505e-05,0.0,0 STARLINK-5191,1 54763U 22175F   24181.05219299  .00004505  00000-0  30078-3 0  9990,2 54763  53.2176 301.4435 0001120  61.2566 298.8539 15.08864203 84363,6917.806,95.436,540.446,538.897,0.0
54763.0,STARLINK-5191,PAYLOAD,2024-06-29 13:58:18,15.08815882,0.0001091,53.2173,299.0675,80.8338,279.2778,-0.00011254,-2.077e-05,0.0,0 STARLINK-5191,1 54763U 22175F   24181.58215834 -.00002077  00000-0 -11254-3 0  9998,2 54763  53.2173 299.0675 0001091  80.8338 279.2778 15.08815882 84445,6917.954,95.439,540.574,539.064,0.0
54763.0,STARLINK-5191,PAYLOAD,2024-06-30 01:05:59,15.08838154,0.000129,53.2179,296.9849,77.7519,282.3617,9.3652e-06,-1.39e-06,0.0,0 STARLINK-5191,1 54763U 22175F   24182.04582402 -.00000139  00000-0  93652-5 0  9998,2 54763  53.2179 296.9849 0001290  77.7519 282.3617 15.08838154 84519,6917.886,95.438,540.643,538.859,0.0
54763.0,STARLINK-5191,PAYLOAD,2024-06-30 13:49:04,15.08835524,0.0001047,53.2157,294.6061,74.713,285.3978,5.696e-05,6.19e-06,0.0,0 STARLINK-5191,1 54763U 22175F   24182.57574563  .00000619  00000-0  56960-4 0  9997,2 54763  53.2157 294.6061 0001047  74.7130 285.3978 15.08835524 86751,6917.894,95.438,540.483,539.035,0.0
54763.0,STARLINK-5191,PAYLOAD,2024-07-01 00:56:44,15.0886498,0.0001447,53.2179,292.5237,64.579,295.5352,-6.5748e-06,-3.93e-06,0.0,0 STARLINK-5191,1 54763U 22175F   24183.03940633 -.00000393  00000-0 -65748-5 0  9990,2 54763  53.2179 292.5237 0001447  64.5790 295.5352 15.08864980 84665,6917.804,95.436,540.67,538.668,0.0
54763.0,STARLINK-5191,PAYLOAD,2024-07-01 13:39:51,15.08822619,0.0001322,53.2153,290.146,73.3356,286.7781,0.00020455,2.968e-05,0.0,0 STARLINK-5191,1 54763U 22175F   24183.56934958  .00002968  00000-0  20455-3 0  9993,2 54763  53.2153 290.1460 0001322  73.3356 286.7781 15.08822619 84747,6917.934,95.439,540.713,538.884,0.0
54763.0,STARLINK-5191,PAYLOAD,2024-07-01 16:50:37,15.08836174,0.0001363,53.219,289.548,84.3782,275.7366,0.00015345,2.155e-05,0.0,0 STARLINK-5191,1 54763U 22175F   24183.70182332  .00002155  00000-0  15345-3 0  9990,2 54763  53.2190 289.5480 0001363  84.3782 275.7366 15.08836174 84762,6917.892,95.438,540.7,538.814,0.0
54763.0,STARLINK-5191,PAYLOAD,2024-07-02 13:30:38,15.08828385,8.77e-05,53.2179,285.6815,86.3063,273.8029,0.00015043,2.106e-05,0.0,0 STARLINK-5191,1 54763U 22175F   24184.56295003  .00002106  00000-0  15043-3 0  9996,2 54763  53.2179 285.6815 0000877  86.3063 273.8029 15.08828385 84895,6917.916,95.438,540.388,539.174,0.0
54763.0,STARLINK-5191,PAYLOAD,2024-07-03 13:21:25,15.0883794,0.00012,53.2174,281.2203,87.2877,272.8252,3.5274e-05,2.74e-06,0.0,0 STARLINK-5191,1 54763U 22175F   24185.55654752  .00000274  00000-0  35274-4 0  9999,2 54763  53.2174 281.2203 0001200  87.2877 272.8252 15.08837940 85049,6917.887,95.438,540.582,538.922,0.0
54763.0,STARLINK-5191,PAYLOAD,2024-07-04 13:12:13,15.08830175,0.0001267,53.2179,276.7657,97.8069,262.3067,4.4467e-05,4.2e-06,0.0,0 STARLINK-5191,1 54763U 22175F   24186.55015405  .00000420  00000-0  44467-4 0  9993,2 54763  53.2179 276.7657 0001267  97.8069 262.3067 15.08830175 87356,6917.91,95.438,540.652,538.899,0.0
54763.0,STARLINK-5191,PAYLOAD,2024-07-04 22:44:31,15.08844893,0.0001272,53.2184,274.9813,95.4625,264.6512,0.00012211,1.656e-05,0.0,0 STARLINK-5191,1 54763U 22175F   24186.94758336  .00001656  00000-0  12211-3 0  9996,2 54763  53.2184 274.9813 0001272  95.4625 264.6512 15.08844893 87413,6917.865,95.437,540.61,538.85,0.0
54763.0,STARLINK-5191,PAYLOAD,2024-07-05 13:02:59,15.08839662,0.0001371,53.2181,272.3034,83.4615,276.6533,8.5551e-05,1.074e-05,0.0,0 STARLINK-5191,1 54763U 22175F   24187.54374937  .00001074  00000-0  85551-4 0  9996,2 54763  53.2181 272.3034 0001371  83.4615 276.6533 15.08839662 85347,6917.881,95.438,540.695,538.798,0.0
54763.0,STARLINK-5191,PAYLOAD,2024-07-05 22:35:17,15.08853298,0.0001454,53.2187,270.5214,85.9465,274.1693,0.00015327,2.153e-05,0.0,0 STARLINK-5191,1 54763U 22175F   24187.94117779  .00002153  00000-0  15327-3 0  9991,2 54763  53.2187 270.5214 0001454  85.9465 274.1693 15.08853298 85403,6917.84,95.437,540.711,538.699,0.0
54763.0,STARLINK-5191,PAYLOAD,2024-07-06 12:53:47,15.08833509,0.0001331,53.2171,267.8388,71.5648,288.5489,-2.9862e-05,-7.63e-06,0.0,0 STARLINK-5191,1 54763U 22175F   24188.53735666 -.00000763  00000-0 -29862-4 0  9995,2 54763  53.2171 267.8388 0001331  71.5648 288.5489 15.08833509 85499,6917.9,95.438,540.686,538.844,0.0
54763.0,STARLINK-5191,PAYLOAD,2024-07-06 14:29:10,15.08835813,0.000135,53.2177,267.5422,77.2119,282.9024,-2.2247e-06,-3.23e-06,0.0,0 STARLINK-5191,1 54763U 22175F   24188.60359462 -.00000323  00000-0 -22247-5 0  9992,2 54763  53.2177 267.5422 0001350  77.2119 282.9024 15.08835813 87662,6917.893,95.438,540.692,538.824,0.0
54763.0,STARLINK-5191,PAYLOAD,2024-07-07 04:47:38,15.08835488,0.0001159,53.2174,264.8704,86.9678,273.1447,0.00010882,1.444e-05,0.0,0 STARLINK-5191,1 54763U 22175F   24189.19975260  .00001444  00000-0  10882-3 0  9990,2 54763  53.2174 264.8704 0001159  86.9678 273.1447 15.08835488 85595,6917.894,95.438,540.561,538.957,0.0
